start=new Date('2022-10-18T00:00:00.000Z').valueOf();
sats=[{"REF_FRAME":"TEME","OBJECT_ID":"2022-076AU","TLE_LINE2":"2 53028  53.2110 230.4731 0005428 111.1579 291.6700 15.84250450 16653","GP_ID":"215423723","MEAN_ANOMALY":"291.6700","NORAD_CAT_ID":"53028","MEAN_MOTION_DDOT":"0.0000000000000","PERIAPSIS":"314.803","MEAN_ELEMENT_THEORY":"SGP4","RCS_SIZE":"LARGE","LAUNCH_DATE":"2022-07-07","PERIOD":"90.895","MEAN_MOTION":"15.84250450","APOAPSIS":"322.073","REV_AT_EPOCH":"1665","OBJECT_NAME":"STARLINK-4161","CLASSIFICATION_TYPE":"U","OBJECT_TYPE":"PAYLOAD","ARG_OF_PERICENTER":"111.1579","ECCENTRICITY":"0.00054280","ELEMENT_SET_NO":"999","EPOCH":"2022-10-18T00:00:00.999648","INCLINATION":"53.2110","COUNTRY_CODE":"US","TLE_LINE1":"1 53028U 22076AU  22291.00001157  .00134653  00000-0  57607-3 0  9995","BSTAR":"0.00057607000000","FILE":"3620131","TIME_SYSTEM":"UTC","CENTER_NAME":"EARTH","EPHEMERIS_TYPE":"0","MEAN_MOTION_DOT":"0.00134653","SITE":"AFETR","SEMIMAJOR_AXIS":"6696.573","RA_OF_ASC_NODE":"230.4731","DECAY_DATE":null},{"PERIAPSIS":"477.284","MEAN_MOTION_DDOT":"0.0000000000000","NORAD_CAT_ID":"53029","MEAN_ANOMALY":"138.2473","TLE_LINE2":"2 53029  53.2175 235.8826 0001431 111.5942 138.2473 15.29179728  1303","GP_ID":"215452441","REF_FRAME":"TEME","OBJECT_ID":"2022-076AV","MEAN_MOTION":"15.29179728","APOAPSIS":"479.246","PERIOD":"94.168","LAUNCH_DATE":"2022-07-07","MEAN_ELEMENT_THEORY":"SGP4","RCS_SIZE":"LARGE","OBJECT_TYPE":"PAYLOAD","CLASSIFICATION_TYPE":"U","OBJECT_NAME":"STARLINK-4143","REV_AT_EPOCH":"130","DECAY_DATE":null,"SEMIMAJOR_AXIS":"6856.400","RA_OF_ASC_NODE":"235.8826","SITE":"AFETR","MEAN_MOTION_DOT":"-0.01065297","TIME_SYSTEM":"UTC","FILE":"3620294","CENTER_NAME":"EARTH","EPHEMERIS_TYPE":"0","TLE_LINE1":"1 53029U 22076AV  22290.91667824 -.01065297  00000-0 -40481-1 0  9994","COUNTRY_CODE":"US","BSTAR":"-0.04048100000000","ARG_OF_PERICENTER":"111.5942","EPOCH":"2022-10-17T22:00:00.999936","ELEMENT_SET_NO":"999","ECCENTRICITY":"0.00014310","INCLINATION":"53.2175"},{"MEAN_ELEMENT_THEORY":"SGP4","RCS_SIZE":"LARGE","LAUNCH_DATE":"2022-07-07","PERIOD":"95.436","MEAN_MOTION":"15.08858684","APOAPSIS":"540.713","REF_FRAME":"TEME","OBJECT_ID":"2022-076AW","TLE_LINE2":"2 53030  53.2164 244.7990 0001481  80.7923 114.2004 15.08858684 16464","GP_ID":"215424107","MEAN_ANOMALY":"114.2004","NORAD_CAT_ID":"53030","MEAN_MOTION_DDOT":"0.0000000000000","PERIAPSIS":"538.664","ARG_OF_PERICENTER":"80.7923","ELEMENT_SET_NO":"999","ECCENTRICITY":"0.00014810","INCLINATION":"53.2164","EPOCH":"2022-10-18T00:00:00.999648","COUNTRY_CODE":"US","TLE_LINE1":"1 53030U 22076AW  22291.00001157 -.00028071  00000-0 -17516-2 0  9990","BSTAR":"-0.00175160000000","FILE":"3620131","CENTER_NAME":"EARTH","TIME_SYSTEM":"UTC","EPHEMERIS_TYPE":"0","SITE":"AFETR","MEAN_MOTION_DOT":"-0.00028071","SEMIMAJOR_AXIS":"6917.823","RA_OF_ASC_NODE":"244.7990","DECAY_DATE":null,"REV_AT_EPOCH":"1646","OBJECT_NAME":"STARLINK-4160","CLASSIFICATION_TYPE":"U","OBJECT_TYPE":"PAYLOAD"},{"TLE_LINE1":"1 53031U 22076AX  22290.91667824 -.01065874  00000-0 -39407-1 0  9994","COUNTRY_CODE":"US","BSTAR":"-0.03940700000000","ARG_OF_PERICENTER":"95.7295","INCLINATION":"53.2175","EPOCH":"2022-10-17T22:00:00.999936","ECCENTRICITY":"0.00012880","ELEMENT_SET_NO":"999","DECAY_DATE":null,"SEMIMAJOR_AXIS":"6853.753","RA_OF_ASC_NODE":"235.9049","MEAN_MOTION_DOT":"-0.01065874","SITE":"AFETR","CENTER_NAME":"EARTH","FILE":"3620294","TIME_SYSTEM":"UTC","EPHEMERIS_TYPE":"0","OBJECT_NAME":"STARLINK-4137","REV_AT_EPOCH":"130","OBJECT_TYPE":"PAYLOAD","CLASSIFICATION_TYPE":"U","LAUNCH_DATE":"2022-07-07","MEAN_ELEMENT_THEORY":"SGP4","RCS_SIZE":"LARGE","MEAN_MOTION":"15.30065751","APOAPSIS":"476.501","PERIOD":"94.114","MEAN_ANOMALY":"185.0168","TLE_LINE2":"2 53031  53.2175 235.9049 0001288  95.7295 185.0168 15.30065751  1301","GP_ID":"215452044","REF_FRAME":"TEME","OBJECT_ID":"2022-076AX","PERIAPSIS":"474.735","MEAN_MOTION_DDOT":"0.0000000000000","NORAD_CAT_ID":"53031"},{"OBJECT_TYPE":"PAYLOAD","CLASSIFICATION_TYPE":"U","OBJECT_NAME":"STARLINK-4115","REV_AT_EPOCH":"130","DECAY_DATE":null,"SEMIMAJOR_AXIS":"6917.789","RA_OF_ASC_NODE":"245.1702","SITE":"AFETR","MEAN_MOTION_DOT":"-0.00019593","CENTER_NAME":"EARTH","FILE":"3620294","TIME_SYSTEM":"UTC","EPHEMERIS_TYPE":"0","COUNTRY_CODE":"US","TLE_LINE1":"1 53032U 22076AY  22290.91667824 -.00019593  00000-0 -12153-2 0  9991","BSTAR":"-0.00121530000000","ARG_OF_PERICENTER":"71.3544","INCLINATION":"53.2173","EPOCH":"2022-10-17T22:00:00.999936","ECCENTRICITY":"0.00014090","ELEMENT_SET_NO":"999","PERIAPSIS":"538.679","MEAN_MOTION_DDOT":"0.0000000000000","NORAD_CAT_ID":"53032","MEAN_ANOMALY":"50.6729","TLE_LINE2":"2 53032  53.2173 245.1702 0001409  71.3544  50.6729 15.08869891  1303","GP_ID":"215451460","REF_FRAME":"TEME","OBJECT_ID":"2022-076AY","MEAN_MOTION":"15.08869891","APOAPSIS":"540.629","PERIOD":"95.436","LAUNCH_DATE":"2022-07-07","MEAN_ELEMENT_THEORY":"SGP4","RCS_SIZE":"LARGE"},{"TLE_LINE1":"1 53033U 22076AZ  22290.91667824 -.01065693  00000-0 -39763-1 0  9990","COUNTRY_CODE":"US","BSTAR":"-0.03976300000000","ARG_OF_PERICENTER":"100.9018","ELEMENT_SET_NO":"999","ECCENTRICITY":"0.00013260","INCLINATION":"53.2175","EPOCH":"2022-10-17T22:00:00.999936","SEMIMAJOR_AXIS":"6854.635","RA_OF_ASC_NODE":"235.8976","DECAY_DATE":null,"CENTER_NAME":"EARTH","FILE":"3620294","TIME_SYSTEM":"UTC","EPHEMERIS_TYPE":"0","MEAN_MOTION_DOT":"-0.01065693","SITE":"AFETR","OBJECT_NAME":"STARLINK-4167","REV_AT_EPOCH":"130","OBJECT_TYPE":"PAYLOAD","CLASSIFICATION_TYPE":"U","LAUNCH_DATE":"2022-07-07","MEAN_ELEMENT_THEORY":"SGP4","RCS_SIZE":"LARGE","MEAN_MOTION":"15.29770417","APOAPSIS":"477.409","PERIOD":"94.132","TLE_LINE2":"2 53033  53.2175 235.8976 0001326 100.9018 169.6806 15.29770417  1303","GP_ID":"215452197","MEAN_ANOMALY":"169.6806","REF_FRAME":"TEME","OBJECT_ID":"2022-076AZ","PERIAPSIS":"475.591","NORAD_CAT_ID":"53033","MEAN_MOTION_DDOT":"0.0000000000000"},{"PERIAPSIS":"476.448","NORAD_CAT_ID":"53034","MEAN_MOTION_DDOT":"0.0000000000000","TLE_LINE2":"2 53034  53.2175 235.8900 0001363 104.4174 155.8634 15.29475072  1309","GP_ID":"215451713","MEAN_ANOMALY":"155.8634","REF_FRAME":"TEME","OBJECT_ID":"2022-076BA","MEAN_MOTION":"15.29475072","APOAPSIS":"478.317","PERIOD":"94.150","LAUNCH_DATE":"2022-07-07","MEAN_ELEMENT_THEORY":"SGP4","RCS_SIZE":"LARGE","OBJECT_TYPE":"PAYLOAD","CLASSIFICATION_TYPE":"U","OBJECT_NAME":"STARLINK-4151","REV_AT_EPOCH":"130","SEMIMAJOR_AXIS":"6855.517","RA_OF_ASC_NODE":"235.8900","DECAY_DATE":null,"FILE":"3620294","CENTER_NAME":"EARTH","EPHEMERIS_TYPE":"0","TIME_SYSTEM":"UTC","SITE":"AFETR","MEAN_MOTION_DOT":"-0.01065474","COUNTRY_CODE":"US","TLE_LINE1":"1 53034U 22076BA  22290.91667824 -.01065474  00000-0 -40120-1 0  9997","BSTAR":"-0.04012000000000","ARG_OF_PERICENTER":"104.4174","ECCENTRICITY":"0.00013630","ELEMENT_SET_NO":"999","EPOCH":"2022-10-17T22:00:00.999936","INCLINATION":"53.2175"},{"FILE":"3620294","CENTER_NAME":"EARTH","TIME_SYSTEM":"UTC","EPHEMERIS_TYPE":"0","SITE":"AFETR","MEAN_MOTION_DOT":"-0.01066069","RA_OF_ASC_NODE":"235.9122","SEMIMAJOR_AXIS":"6852.871","DECAY_DATE":null,"ECCENTRICITY":"0.00012640","ELEMENT_SET_NO":"999","INCLINATION":"53.2175","EPOCH":"2022-10-17T22:00:00.999936","ARG_OF_PERICENTER":"94.2534","BSTAR":"-0.03905400000000","COUNTRY_CODE":"US","TLE_LINE1":"1 53035U 22076BB  22290.91667824 -.01066069  00000-0 -39054-1 0  9993","CLASSIFICATION_TYPE":"U","OBJECT_TYPE":"PAYLOAD","REV_AT_EPOCH":"130","OBJECT_NAME":"STARLINK-4157","PERIOD":"94.095","APOAPSIS":"475.602","MEAN_MOTION":"15.30361080","RCS_SIZE":"LARGE","MEAN_ELEMENT_THEORY":"SGP4","LAUNCH_DATE":"2022-07-07","MEAN_MOTION_DDOT":"0.0000000000000","NORAD_CAT_ID":"53035","PERIAPSIS":"473.870","OBJECT_ID":"2022-076BB","REF_FRAME":"TEME","GP_ID":"215451626","TLE_LINE2":"2 53035  53.2175 235.9122 0001264  94.2534 196.5192 15.30361080  1309","MEAN_ANOMALY":"196.5192"},{"PERIAPSIS":"473.007","NORAD_CAT_ID":"53036","MEAN_MOTION_DDOT":"0.0000000000000","MEAN_ANOMALY":"211.2380","GP_ID":"215451879","TLE_LINE2":"2 53036  53.2175 235.9191 0001237  89.4231 211.2380 15.30656394  1305","OBJECT_ID":"2022-076BC","REF_FRAME":"TEME","APOAPSIS":"474.702","MEAN_MOTION":"15.30656394","PERIOD":"94.077","LAUNCH_DATE":"2022-07-07","RCS_SIZE":"MEDIUM","MEAN_ELEMENT_THEORY":"SGP4","OBJECT_TYPE":"PAYLOAD","CLASSIFICATION_TYPE":"U","OBJECT_NAME":"STARLINK-4155","REV_AT_EPOCH":"130","DECAY_DATE":null,"RA_OF_ASC_NODE":"235.9191","SEMIMAJOR_AXIS":"6851.990","MEAN_MOTION_DOT":"-0.01066251","SITE":"AFETR","CENTER_NAME":"EARTH","FILE":"3620294","TIME_SYSTEM":"UTC","EPHEMERIS_TYPE":"0","BSTAR":"-0.03870300000000","COUNTRY_CODE":"US","TLE_LINE1":"1 53036U 22076BC  22290.91667824 -.01066251  00000-0 -38703-1 0  9997","ELEMENT_SET_NO":"999","ECCENTRICITY":"0.00012370","EPOCH":"2022-10-17T22:00:00.999936","INCLINATION":"53.2175","ARG_OF_PERICENTER":"89.4231"},{"GP_ID":"215452442","TLE_LINE2":"2 53037  53.2175 235.9264 0001220  92.0613 218.3507 15.30951696  1305","MEAN_ANOMALY":"218.3507","OBJECT_ID":"2022-076BD","REF_FRAME":"TEME","PERIAPSIS":"472.138","MEAN_MOTION_DDOT":"0.0000000000000","NORAD_CAT_ID":"53037","LAUNCH_DATE":"2022-07-07","RCS_SIZE":"LARGE","MEAN_ELEMENT_THEORY":"SGP4","APOAPSIS":"473.809","MEAN_MOTION":"15.30951696","PERIOD":"94.059","OBJECT_NAME":"STARLINK-4153","REV_AT_EPOCH":"130","OBJECT_TYPE":"PAYLOAD","CLASSIFICATION_TYPE":"U","BSTAR":"-0.03835400000000","TLE_LINE1":"1 53037U 22076BD  22290.91667824 -.01066422  00000-0 -38354-1 0  9990","COUNTRY_CODE":"US","ECCENTRICITY":"0.00012200","EPOCH":"2022-10-17T22:00:00.999936","INCLINATION":"53.2175","ELEMENT_SET_NO":"999","ARG_OF_PERICENTER":"92.0613","RA_OF_ASC_NODE":"235.9264","SEMIMAJOR_AXIS":"6851.109","DECAY_DATE":null,"CENTER_NAME":"EARTH","FILE":"3620294","TIME_SYSTEM":"UTC","EPHEMERIS_TYPE":"0","MEAN_MOTION_DOT":"-0.01066422","SITE":"AFETR"}];
